{
  "updated": "2026-07-21T13:26:31.767Z",
  "capsules": {
    "66664": {
      "name": "SOYUZ-MS 28",
      "kind": "crew",
      "family": "soyuz",
      "phase": "docked",
      "stationKey": "iss",
      "since": "2026-07-03T10:34:14.509Z",
      "distanceKm": 0,
      "altitudeKm": 427.1,
      "inclinationDeg": 51.632,
      "l1": "1 66664U 25275A   26202.18553447  .00005896  00000+0  11479-3 0  9990",
      "l2": "2 66664  51.6316 131.8443 0006849 320.6461  39.4029 15.49071756576117"
    },
    "67796": {
      "name": "CREW DRAGON 12",
      "kind": "crew",
      "family": "dragon",
      "phase": "docked",
      "stationKey": "iss",
      "since": "2026-07-03T10:34:14.509Z",
      "distanceKm": 0,
      "altitudeKm": 427.1,
      "inclinationDeg": 51.632,
      "l1": "1 67796U 26031A   26202.18553447  .00005896  00000+0  11479-3 0  9998",
      "l2": "2 67796  51.6316 131.8443 0006849 320.6461  39.4029 15.49071756576417"
    },
    "68319": {
      "name": "PROGRESS-MS 33",
      "kind": "cargo",
      "family": "progress",
      "phase": "docked",
      "stationKey": "iss",
      "since": "2026-07-10T20:18:26.588Z",
      "distanceKm": 0,
      "altitudeKm": 427.1,
      "inclinationDeg": 51.632,
      "l1": "1 68319U 26058A   26202.18553447  .00005896  00000+0  11479-3 0  9999",
      "l2": "2 68319  51.6316 131.8443 0006849 320.6461  39.4029 15.49071756576150"
    },
    "68689": {
      "name": "CYGNUS NG-24",
      "kind": "cargo",
      "family": "cygnus",
      "phase": "docked",
      "stationKey": "iss",
      "since": "2026-07-10T20:18:26.588Z",
      "distanceKm": 0,
      "altitudeKm": 427.1,
      "inclinationDeg": 51.632,
      "l1": "1 68689U 26079A   26202.18553447  .00005896  00000+0  11479-3 0  9992",
      "l2": "2 68689  51.6316 131.8443 0006849 320.6461  39.4029 15.49071756576532"
    },
    "68837": {
      "name": "PROGRESS-MS 34",
      "kind": "cargo",
      "family": "progress",
      "phase": "docked",
      "stationKey": "iss",
      "since": "2026-07-10T20:18:26.588Z",
      "distanceKm": 0,
      "altitudeKm": 427.1,
      "inclinationDeg": 51.632,
      "l1": "1 68837U 26093A   26202.18553447  .00005896  00000+0  11479-3 0  9993",
      "l2": "2 68837  51.6316 131.8443 0006849 320.6461  39.4029 15.49071756576571"
    },
    "69049": {
      "name": "TIANZHOU-10",
      "kind": "cargo",
      "family": "tianzhou",
      "phase": "docked",
      "stationKey": "css",
      "since": "2026-07-10T20:18:26.588Z",
      "distanceKm": 0,
      "altitudeKm": 402.1,
      "inclinationDeg": 41.468,
      "l1": "1 69049U 26102A   26202.11164244  .00010192  00000+0  13514-3 0  9993",
      "l2": "2 69049  41.4684 115.9697 0001843 304.6724  55.3940 15.58228865298103"
    },
    "69180": {
      "name": "SHENZHOU-23 (SZ-23)",
      "kind": "crew",
      "family": "shenzhou",
      "phase": "docked",
      "stationKey": "css",
      "since": "2026-07-03T10:34:14.509Z",
      "distanceKm": 0,
      "altitudeKm": 402.1,
      "inclinationDeg": 41.468,
      "l1": "1 69180U 26113A   26202.11164244  .00010192  00000+0  13514-3 0  9991",
      "l2": "2 69180  41.4684 115.9697 0001843 304.6724  55.3940 15.58228865297962"
    }
  },
  "events": [
    {
      "id": "68319",
      "name": "PROGRESS-MS 33",
      "kind": "cargo",
      "family": "progress",
      "stationKey": "iss",
      "event": "launched",
      "at": "2026-07-10T20:18:26.588Z"
    },
    {
      "id": "68689",
      "name": "CYGNUS NG-24",
      "kind": "cargo",
      "family": "cygnus",
      "stationKey": "iss",
      "event": "launched",
      "at": "2026-07-10T20:18:26.588Z"
    },
    {
      "id": "68837",
      "name": "PROGRESS-MS 34",
      "kind": "cargo",
      "family": "progress",
      "stationKey": "iss",
      "event": "launched",
      "at": "2026-07-10T20:18:26.588Z"
    },
    {
      "id": "69049",
      "name": "TIANZHOU-10",
      "kind": "cargo",
      "family": "tianzhou",
      "stationKey": "css",
      "event": "launched",
      "at": "2026-07-10T20:18:26.588Z"
    }
  ]
}
